{
    "links": {
        "self": "http://www.neowsapp.com/rest/v1/neo/3568373?api_key=iIulBulltgU6a56xZRHN4H3l9WmuAYTsLGpBGhQ2"
    },
    "id": "3568373",
    "neo_reference_id": "3568373",
    "name": "(2011 MX2)",
    "designation": "2011 MX2",
    "nasa_jpl_url": "http://ssd.jpl.nasa.gov/sbdb.cgi?sstr=3568373",
    "absolute_magnitude_h": 20.5,
    "estimated_diameter": {
        "kilometers": {
            "estimated_diameter_min": 0.2111324448,
            "estimated_diameter_max": 0.4721064988
        },
        "meters": {
            "estimated_diameter_min": 211.1324447897,
            "estimated_diameter_max": 472.1064988055
        },
        "miles": {
            "estimated_diameter_min": 0.1311915784,
            "estimated_diameter_max": 0.2933532873
        },
        "feet": {
            "estimated_diameter_min": 692.6917701639,
            "estimated_diameter_max": 1548.9058855411
        }
    },
    "is_potentially_hazardous_asteroid": false,
    "close_approach_data": [
        {
            "close_approach_date": "1986-07-19",
            "close_approach_date_full": "1986-Jul-19 09:23",
            "epoch_date_close_approach": 522148980000,
            "relative_velocity": {
                "kilometers_per_second": "22.3431430962",
                "kilometers_per_hour": "80435.3151462682",
                "miles_per_hour": "49979.3767918576"
            },
            "miss_distance": {
                "astronomical": "0.432307301",
                "lunar": "168.167540089",
                "kilometers": "64672251.41504887",
                "miles": "40185473.604139606"
            },
            "orbiting_body": "Earth"
        },
        {
            "close_approach_date": "2002-05-12",
            "close_approach_date_full": "2002-May-12 18:20",
            "epoch_date_close_approach": 1021227600000,
            "relative_velocity": {
                "kilometers_per_second": "9.3089849756",
                "kilometers_per_hour": "33512.3459121586",
                "miles_per_hour": "20823.2684919187"
            },
            "miss_distance": {
                "astronomical": "1.8773760414",
                "lunar": "730.2992801046",
                "kilometers": "280851456.982471818",
                "miles": "174513003.0934263684"
            },
            "orbiting_body": "Juptr"
        },
        {
            "close_approach_date": "2011-07-07",
            "close_approach_date_full": "2011-Jul-07 07:50",
            "epoch_date_close_approach": 1310025000000,
            "relative_velocity": {
                "kilometers_per_second": "23.271530538",
                "kilometers_per_hour": "83777.5099368364",
                "miles_per_hour": "52056.0866604748"
            },
            "miss_distance": {
                "astronomical": "0.3376921213",
                "lunar": "131.3622351857",
                "kilometers": "50518022.062261631",
                "miles": "31390443.3152912678"
            },
            "orbiting_body": "Earth"
        },
        {
            "close_approach_date": "2018-07-20",
            "close_approach_date_full": "2018-Jul-20 08:32",
            "epoch_date_close_approach": 1532075520000,
            "relative_velocity": {
                "kilometers_per_second": "22.5178269302",
                "kilometers_per_hour": "81064.1769486426",
                "miles_per_hour": "50370.1270601163"
            },
            "miss_distance": {
                "astronomical": "0.4707893322",
                "lunar": "183.1370502258",
                "kilometers": "70429081.315842414",
                "miles": "43762601.8308527532"
            },
            "orbiting_body": "Earth"
        }
    ],
    "orbital_data": {
        "orbit_id": "18",
        "orbit_determination_date": "2017-04-06 08:53:14",
        "first_observation_date": "2011-06-26",
        "last_observation_date": "2011-09-03",
        "data_arc_in_days": 69,
        "observations_used": 67,
        "orbit_uncertainty": "6",
        "minimum_orbit_intersection": ".237012",
        "jupiter_tisserand_invariant": "3.118",
        "epoch_osculation": "2459000.5",
        "eccentricity": ".4680457129965259",
        "semi_major_axis": "2.329053742484975",
        "inclination": "41.61564314453147",
        "ascending_node_longitude": "287.9215498698775",
        "orbital_period": "1298.27798186266",
        "perihelion_distance": "1.238950122976368",
        "perihelion_argument": "16.65143153964551",
        "aphelion_distance": "3.419157361993582",
        "perihelion_time": "2458353.129756519946",
        "mean_anomaly": "179.5095433402131",
        "mean_motion": ".2772903839002971",
        "equinox": "J2000",
        "orbit_class": {
            "orbit_class_type": "AMO",
            "orbit_class_description": "Near-Earth asteroid orbits similar to that of 1221 Amor",
            "orbit_class_range": "1.017 AU < q (perihelion) < 1.3 AU"
        }
    },
    "is_sentry_object": false
}